OBJECT_NAME,OBJECT_ID,EPOCH,MEAN_MOTION,ECCENTRICITY,INCLINATION,RA_OF_ASC_NODE,ARG_OF_PERICENTER,MEAN_ANOMALY,EPHEMERIS_TYPE,CLASSIFICATION_TYPE,NORAD_CAT_ID,ELEMENT_SET_NO,REV_AT_EPOCH,BSTAR,MEAN_MOTION_DOT,MEAN_MOTION_DDOT
FLORIPASAT-1,2019-093G,2026-07-16T05:34:40.053792,15.04144621,.00107782,97.7927,291.6821,337.5676,22.5076,0,U,44885,999,35701,.12096789E-3,.1616E-4,0
SHUNTIAN,2019-093H,2026-07-16T06:02:29.998176,14.95279796,.00108246,97.8011,285.2656,334.1770,25.8909,0,U,44886,999,35652,.10470519E-3,.1095E-4,0
ELEKTRO-L 3,2019-095A,2026-07-16T03:46:38.668800,1.00271012,.00011179,0.3293,82.1275,21.3938,323.1155,0,U,44903,999,2399,0,-.107E-5,0
GONETS-M 14,2019-096A,2026-07-16T06:27:25.277184,12.42870878,.00144245,82.5219,66.6094,88.2484,272.0248,0,U,44905,999,29729,.12911359E-3,.28E-6,0
GONETS-M 15,2019-096B,2026-07-16T07:09:38.145024,12.42883403,.00161175,82.5238,67.0573,110.0036,250.2781,0,U,44906,999,29726,.52469486E-3,.83E-6,0
GONETS-M 16,2019-096C,2026-07-16T05:50:52.348416,12.42892459,.00110631,82.5184,66.0298,149.1579,211.0153,0,U,44907,999,29724,-.29711881E-4,.6E-7,0
RS-44 & BREEZE-KM R/B,2019-096E,2026-07-16T07:44:58.887456,12.79748924,.02185247,82.5242,320.3451,76.3675,286.1657,0,U,44909,999,30607,.2724887E-5,.14E-6,0
JILIN-1 KUANFU 01,2020-003A,2026-07-16T05:29:35.948256,15.10870148,.00093504,97.5021,270.6183,193.0895,167.0094,0,U,45016,999,35971,.95314806E-4,.1524E-4,0
XINGYUN-2 01,2020-028A,2026-07-16T06:19:35.171328,15.11916400,.00108396,97.4869,189.0913,100.7321,259.5130,0,U,45602,999,33923,.71983451E-4,.117E-4,0
XINGYUN-2 02,2020-028B,2026-07-16T07:31:39.498240,15.11638906,.00112357,97.5068,202.7953,161.7945,198.3690,0,U,45603,999,33923,.29302052E-4,.435E-5,0
HAIYANG-1D,2020-036A,2026-07-16T06:36:02.240352,14.34182755,.00040306,98.4561,138.3239,68.2078,291.9536,0,U,45721,999,31914,.10925221E-3,.263E-5,0
M2 PATHFINDER,2020-037E,2026-07-16T02:33:31.248288,15.04792666,.00128349,97.8141,28.6655,59.7504,300.4991,0,U,45727,999,32984,.46974679E-4,.599E-5,0
GAOFEN DUOMO (GFDM),2020-042A,2026-07-16T06:32:33.853920,14.76804188,.00106509,97.7733,256.0989,349.7995,10.2997,0,U,45856,999,32530,.82308061E-4,.529E-5,0
ZIYUAN 3-03 (ZY 3-03),2020-051A,2026-07-16T07:44:02.232384,15.21203498,.00028654,97.5367,264.3413,242.9635,117.1308,0,U,45939,999,33177,.3203736E-5,.1E-7,0
NEMO-HD,2020-061F,2026-07-16T06:39:15.909408,15.45151656,.00010047,97.1901,258.9449,100.7193,259.4170,0,U,46277,999,32647,.12707958E-3,.5934E-4,0
NAPA-1,2020-061BA,2026-07-16T06:57:05.795424,15.72083365,.00026203,97.2437,272.5096,173.8786,186.2510,0,U,46320,999,32630,.37768832E-3,.49514E-3,0
JILIN-1 GAOFEN 3E,2020-065D,2026-07-16T05:47:55.767552,15.67329041,.00101056,97.2205,250.5957,69.0036,291.2306,0,U,46457,999,32430,.43962068E-3,.47497E-3,0
JILIN-1 GAOFEN 3F,2020-065E,2026-07-16T06:12:06.672384,15.64029065,.00113541,97.2163,247.7976,54.4857,305.7460,0,U,46458,999,32424,.40786719E-3,.38611E-3,0
JILIN-1 GAOFEN 3G,2020-065F,2026-07-16T04:47:00.760704,15.77101677,.00054542,97.2219,255.0808,268.2043,91.8599,0,U,46459,999,32450,.50360617E-3,.82374E-3,0
JILIN-1 GAOFEN 3H,2020-065G,2026-07-16T05:53:56.146272,15.72405115,.000657,97.2166,251.2559,198.4369,161.6658,0,U,46460,999,32444,.47039292E-3,.627E-3,0
HAIYANG-2C,2020-066A,2026-07-16T07:12:47.738592,13.83372141,.00075787,65.9969,142.7989,236.8966,123.1376,0,U,46469,999,29352,-.19849184E-3,-.3E-5,0
HJ-2A,2020-067A,2026-07-16T05:41:50.862336,14.76548183,.00042466,97.8827,274.9217,152.8466,207.2967,0,U,46478,999,31254,.3438029E-5,-.26E-6,0
HJ-2B,2020-067B,2026-07-16T06:34:28.726176,14.76511810,.00019838,97.8891,276.0025,104.6057,255.5373,0,U,46479,999,31255,.52333943E-4,.315E-5,0
GONETS-M 17,2020-068A,2026-07-16T06:27:31.758048,12.42874091,.00217961,82.5014,329.4095,334.2276,25.7716,0,U,46486,999,26277,.11093858E-3,.25E-6,0
GONETS-M 18,2020-068B,2026-07-16T07:31:05.727072,12.42875025,.00190183,82.4969,328.4889,330.6648,29.3363,0,U,46487,999,26276,.21282116E-3,.39E-6,0
GONETS-M 19,2020-068C,2026-07-16T06:55:06.636000,12.42892863,.00130113,82.4993,328.9601,347.6490,12.4269,0,U,46488,999,26286,.10045997E-3,.24E-6,0
DEKART,2020-068H,2026-07-16T07:05:21.067872,15.37964039,.00093751,97.8738,208.6639,169.1976,190.9471,0,U,46493,999,32024,.17839569E-3,.6576E-4,0
