FLORIPASAT-1            
1 44885U 19093G   26197.23240803  .00001616  00000+0  12097-3 0  9993
2 44885  97.7927 291.6821 0010778 337.5676  22.5076 15.04144621357017
SHUNTIAN                
1 44886U 19093H   26197.25173609  .00001095  00000+0  10471-3 0  9990
2 44886  97.8011 285.2656 0010824 334.1770  25.8909 14.95279796356525
ELEKTRO-L 3             
1 44903U 19095A   26197.15739200 -.00000107  00000+0  00000+0 0  9993
2 44903   0.3293  82.1275 0001117  21.3938 323.1155  1.00271012 23997
GONETS-M 14             
1 44905U 19096A   26197.26904256  .00000028  00000+0  12911-3 0  9992
2 44905  82.5219  66.6094 0014424  88.2484 272.0248 12.42870878297292
GONETS-M 15             
1 44906U 19096B   26197.29835816  .00000083  00000+0  52469-3 0  9994
2 44906  82.5238  67.0573 0016117 110.0036 250.2781 12.42883403297264
GONETS-M 16             
1 44907U 19096C   26197.24366144  .00000006  00000+0 -29712-4 0  9995
2 44907  82.5184  66.0298 0011063 149.1579 211.0153 12.42892459297245
RS-44 & BREEZE-KM R/B   
1 44909U 19096E   26197.32290379  .00000014  00000+0  27249-5 0  9994
2 44909  82.5242 320.3451 0218524  76.3675 286.1657 12.79748924306079
JILIN-1 KUANFU 01       
1 45016U 20003A   26197.22888829  .00001524  00000+0  95315-4 0  9991
2 45016  97.5021 270.6183 0009350 193.0895 167.0094 15.10870148359718
XINGYUN-2 01            
1 45602U 20028A   26197.26360152  .00001170  00000+0  71983-4 0  9999
2 45602  97.4869 189.0913 0010839 100.7321 259.5130 15.11916400339231
XINGYUN-2 02            
1 45603U 20028B   26197.31365160  .00000435  00000+0  29302-4 0  9991
2 45603  97.5068 202.7953 0011235 161.7945 198.3690 15.11638906339234
HAIYANG-1D              
1 45721U 20036A   26197.27502593  .00000263  00000+0  10925-3 0  9998
2 45721  98.4561 138.3239 0004030  68.2078 291.9536 14.34182755319144
M2 PATHFINDER           
1 45727U 20037E   26197.10661167  .00000599  00000+0  46975-4 0  9997
2 45727  97.8141  28.6655 0012834  59.7504 300.4991 15.04792666329845
GAOFEN DUOMO (GFDM)     
1 45856U 20042A   26197.27261405  .00000529  00000+0  82308-4 0  9998
2 45856  97.7733 256.0989 0010650 349.7995  10.2997 14.76804188325301
ZIYUAN 3-03 (ZY 3-03)   
1 45939U 20051A   26197.32224806  .00000001  00000+0  32037-5 0  9990
2 45939  97.5367 264.3413 0002865 242.9635 117.1308 15.21203498331771
NEMO-HD                 
1 46277U 20061F   26197.27726747  .00005934  00000+0  12708-3 0  9993
2 46277  97.1901 258.9449 0001004 100.7193 259.4170 15.45151656326471
NAPA-1                  
1 46320U 20061BA  26197.28965041  .00049514  00000+0  37769-3 0  9991
2 46320  97.2437 272.5096 0002620 173.8786 186.2510 15.72083365326307
JILIN-1 GAOFEN 3E       
1 46457U 20065D   26197.24161768  .00047497  00000+0  43962-3 0  9996
2 46457  97.2205 250.5957 0010105  69.0036 291.2306 15.67329041324300
JILIN-1 GAOFEN 3F       
1 46458U 20065E   26197.25841056  .00038611  00000+0  40787-3 0  9993
2 46458  97.2163 247.7976 0011354  54.4857 305.7460 15.64029065324244
JILIN-1 GAOFEN 3G       
1 46459U 20065F   26197.19931436  .00082374  00000+0  50361-3 0  9993
2 46459  97.2219 255.0808 0005454 268.2043  91.8599 15.77101677324508
JILIN-1 GAOFEN 3H       
1 46460U 20065G   26197.24578873  .00062700  00000+0  47039-3 0  9992
2 46460  97.2166 251.2559 0006570 198.4369 161.6658 15.72405115324441
HAIYANG-2C              
1 46469U 20066A   26197.30055253 -.00000300  00000+0 -19849-3 0  9999
2 46469  65.9969 142.7989 0007578 236.8966 123.1376 13.83372141293529
HJ-2A                   
1 46478U 20067A   26197.23739424 -.00000026  00000+0  34380-5 0  9994
2 46478  97.8827 274.9217 0004246 152.8466 207.2967 14.76548183312547
HJ-2B                   
1 46479U 20067B   26197.27394359  .00000315  00000+0  52334-4 0  9991
2 46479  97.8891 276.0025 0001983 104.6057 255.5373 14.76511810312550
GONETS-M 17             
1 46486U 20068A   26197.26911757  .00000025  00000+0  11094-3 0  9991
2 46486  82.5014 329.4095 0021796 334.2276  25.7716 12.42874091262774
GONETS-M 18             
1 46487U 20068B   26197.31326073  .00000039  00000+0  21282-3 0  9994
2 46487  82.4969 328.4889 0019018 330.6648  29.3363 12.42875025262765
GONETS-M 19             
1 46488U 20068C   26197.28827125  .00000024  00000+0  10046-3 0  9995
2 46488  82.4993 328.9601 0013011 347.6490  12.4269 12.42892863262868
DEKART                  
1 46493U 20068H   26197.29538273  .00006576  00000+0  17840-3 0  9992
2 46493  97.8738 208.6639 0009375 169.1976 190.9471 15.37964039320246
